LEMUR-2-TINYKEV
1 43883U 18111H   22030.72033309  .00001741  00000+0  15137-3 0  9994
2 43883  97.6822 300.6422 0012854  60.9243 299.3265 14.98210279169143
LEMUR-2-REMY-COLTON
1 43884U 18111J   22031.44680483  .00003736  00000+0  31736-3 0  9995
2 43884  97.6862 301.7024 0013063  59.4232 300.8278 14.98423657167272
LEMUR-2-GUSTAVO
1 43885U 18111K   22030.70617599  .00003027  00000+0  25971-3 0  9999
2 43885  97.6850 300.7738 0013203  61.5195 298.7356 14.98178002169140
LEMUR-2-ZO
1 43886U 18111L   22030.70694778  .00003058  00000+0  26170-3 0  9990
2 43886  97.6860 301.0071 0013135  60.6191 299.6341 14.98272328169157
LEMUR-2-NATALIEMURRAY
1 43887U 18111M   22031.01793397  .00003054  00000+0  26064-3 0  9991
2 43887  97.6842 301.5520 0012474  59.6740 300.5715 14.98386006169218
LEMUR-2-SARAHBETTYBOO
1 43888U 18111N   22030.71573955  .00002220  00000+0  19058-3 0  9993
2 43888  97.6874 301.4582 0013044  56.5840 303.6628 14.98428752169179
LEMUR-2-DAISY-HARPER
1 43889U 18111P   22030.72124051  .00001912  00000+0  16457-3 0  9991
2 43889  97.6872 301.6210 0012758  54.7973 305.4443 14.98500540169177
GRUS-1A
1 43890U 18111Q   22031.40486074  .00000760  00000+0  78196-4 0  9994
2 43890  97.6526 292.6816 0005886 110.2542 249.9272 14.93105062168817
2018-111R
1 43891U 18111R   22031.47864964  .00001030  00000+0  45551-4 0  9990
2 43891  97.2016 279.6114 0024938 215.8576 262.0004 15.23596443172211
FLOCK 3K-4
1 43893U 18111T   22031.44074559  .00008739  00000+0  29048-3 0  9997
2 43893  97.2128 285.3129 0018487 197.5460 162.5145 15.31250516172562
FLOCK 3K-2
1 43895U 18111V   22031.43087762  .00011023  00000+0  36580-3 0  9997
2 43895  97.2122 285.2630 0018937 196.8935 163.1678 15.31228735172569
FLOCK 3K-5
1 43899U 18111Z   22031.48746820  .00015359  00000+0  50669-3 0  9993
2 43899  97.2130 285.4056 0017790 191.1699 168.9151 15.31361159172575
FLOCK 3K-7
1 43902U 18111AC  22030.69390396  .00016144  00000+0  53269-3 0  9995
2 43902  97.2129 284.6250 0017793 194.8122 165.2601 15.31343397172450
FLOCK 3K-11
1 43904U 18111AE  22030.92315323  .00005129  00000+0  16761-3 0  9997
2 43904  97.2134 284.9530 0016461 191.6575 168.4288 15.32039641172495
FLOCK 3K-10
1 43905U 18111AF  22031.12725764  .00013154  00000+0  43723-3 0  9990
2 43905  97.2130 285.1283 0017458 190.9988 169.0875 15.31159525172523
FLOCK 3K-9
1 43906U 18111AG  22031.27513953  .00028006  00000+0  92240-3 0  9992
2 43906  97.2124 285.1635 0017683 191.3738 168.7107 15.31292873172546
ZACUBE-2
1 43907U 18111AH  22031.46922774  .00002819  00000+0  11184-3 0  9991
2 43907  97.2092 282.6644 0019727 201.3208 284.2606 15.25995171172393
LUME 1
1 43908U 18111AJ  22031.40012491  .00008575  00000+0  31756-3 0  9994
2 43908  97.2109 283.6362 0018863 197.2393 162.8209 15.27721006172452
YUNHAI-2 1
1 43909U 18112A   22031.52791437 -.00000177  00000+0 -64044-5 0  9993
2 43909  50.0142 338.2807 0000318 341.7933  18.2965 14.27726668162775
YUNHAI-2 2
1 43910U 18112B   22031.55542545 -.00000192  00000+0 -12433-4 0  9993
2 43910  50.0145  41.7082 0004743  12.1477 347.9557 14.27726503161898
YUNHAI-2 3
1 43911U 18112C   22031.50617181 -.00000171  00000+0 -38464-5 0  9998
2 43911  50.0153 281.3491 0000892 300.7361  59.3467 14.27722238163564
YUNHAI-2 4
1 43912U 18112D   22031.55443918 -.00000148  00000+0  53071-5 0  9993
2 43912  50.0116 221.3839 0015844 138.3043 221.9100 14.27722048159238
YUNHAI-2 5
1 43913U 18112E   22031.15328781  .00000056  00000+0  87211-4 0  9999
2 43913  50.0096 102.7649 0005681 156.0743 204.0451 14.27722196160988
HONGYAN 1 (CHONGQING)
1 43914U 18112F   22031.37135357 -.00000138  00000+0 -15706-4 0  9992
2 43914  50.0108 353.3741 0006442  72.8310 287.3273 13.43703373151801
YUNHAI-2 6
1 43915U 18112G   22031.53094764 -.00000151  00000+0  41659-5 0  9998
2 43915  50.0124 161.5639 0008040 123.9649 236.2028 14.27776067160134
CHINASAT 2D (ZX 2D)
1 43920U 19001A   22031.46713269 -.00000346  00000+0  00000+0 0  9997
2 43920   0.0483 266.3592 0001064 131.4187  31.0328  1.00273559 11331
IRIDIUM 180
1 43922U 19002A   22030.80895579  .00000147  00000+0  45450-4 0  9993
2 43922  86.3979 301.5547 0002222  62.5290 297.6132 14.34222354159893
IRIDIUM 176
1 43923U 19002B   22031.23812905  .00000557  00000+0  84488-4 0  9993
2 43923  86.6114 301.4105 0002097  88.0197 272.1261 14.72256888164142
IRIDIUM 168
1 43924U 19002C   22030.80262807  .00000137  00000+0  41737-4 0  9990
2 43924  86.3981 301.5896 0001942  76.4343 283.7069 14.34216300159873
IRIDIUM 173
1 43925U 19002D   22030.78993694  .00000144  00000+0  44412-4 0  9994
2 43925  86.3978 301.5489 0002026  78.5227 281.6196 14.34221775159854
IRIDIUM 169
1 43926U 19002E   22030.93019581  .00000149  00000+0  42211-4 0  9996
2 43926  86.4257 333.0922 0004146 178.3025 181.8188 14.38605555160443
IRIDIUM 172
1 43927U 19002F   22030.78358785  .00000104  00000+0  30150-4 0  9992
2 43927  86.3979 301.5546 0002036  75.7881 284.3541 14.34214089159862
IRIDIUM 175
1 43928U 19002G   22031.23197767  .00000565  00000+0  85769-4 0  9992
2 43928  86.6115 301.2393 0002360  78.0707 282.0774 14.72251906164138
IRIDIUM 171
1 43929U 19002H   22030.83433334  .00000147  00000+0  45345-4 0  9993
2 43929  86.3987 301.6621 0001909  77.5599 282.5811 14.34219485159867
IRIDIUM 170
1 43930U 19002J   22031.44824858  .00000561  00000+0  85027-4 0  9999
2 43930  86.6113 301.3284 0002156  83.6778 276.4685 14.72252942164186
IRIDIUM 167
1 43931U 19002K   22031.24660043  .00000179  00000+0  56959-4 0  9999
2 43931  86.3978 301.3693 0002014  68.8016 291.3394 14.34213801159928
RAPIS-1
1 43932U 19003A   22030.92479465  .00004179  00000+0  26516-3 0  9990
2 43932  97.1790  49.1233 0003436 171.1602 188.9689 15.09391066164046
ORIGAMISAT-1
1 43933U 19003B   22031.45826524  .00114151  00000+0  28472-2 0  9996
2 43933  97.1572  70.4859 0009596 300.2369  59.7927 15.39715895169008
RISESAT
1 43934U 19003C   22031.39390588  .00001816  00000+0  80043-4 0  9993
2 43934  97.1531  66.4926 0015027 307.2269 182.9823 15.22925963168741
MICRODRAGON
1 43935U 19003D   22031.34333513  .00004912  00000+0  20374-3 0  9994
2 43935  97.1547  67.6939 0015933 304.1201  55.8525 15.24198925168800
NEXUS (FO-99)
1 43937U 19003F   22030.86065828  .00007134  00000+0  26661-3 0  9997
2 43937  97.1500  69.7636 0020387 286.2578  73.6419 15.27452002168952
ALE-1
1 43938U 19003G   22030.68961163  .00024977  00000+0  76334-3 0  9991
2 43938  97.1637  72.7817 0017915 282.1382  77.7854 15.33703892169053
AOBA VELOX-IV
1 43940U 19003J   22031.38768896  .00020286  00000+0  68900-3 0  9999
2 43940  97.1497  71.8942 0018919 277.8158  82.0936 15.30339603169126
LINGQUE 1A
1 43942U 19005A   22031.50563336  .00042817  00000+0  13886-2 0  9995
2 43942  97.5144 139.0392 0011160  51.8920  78.7399 15.31792956167875
JILIN-01-09
1 43943U 19005B   22031.50651784  .00001337  00000+0  79395-4 0  9992
2 43943  97.5037 128.2339 0015974  76.5575  46.8426 15.12926020167175
XIAOXIANG 3
1 43944U 19005C   22031.52100988  .00005508  00000+0  29679-3 0  9993
2 43944  97.5035 129.3730 0013370  72.8964 342.6806 15.15131656167243
JILIN-01-10
1 43946U 19005E   22031.52622894  .00001925  00000+0  11248-3 0  9992
2 43946  97.5030 128.2996 0021013  70.4823 346.6426 15.12920124167114
HELLAS-SAT 4 & SGS-1
1 44034U 19007A   22031.06299389  .00000144  00000+0  00000+0 0  9993
2 44034   0.0657 121.7674 0003212  41.5320  28.6180  1.00270523 11328
GSAT-31
1 44035U 19007B   22031.29215954  .00000116  00000+0  00000+0 0  9994
2 44035   0.0048  30.1448 0004342 260.1998 353.1488  1.00271552 10947
2018-092C
1 44041U 18092C   22031.49379807  .00008741  00000+0  21233-3 0  9991
2 44041  51.6411  24.9736 0002963 348.8223 100.5604 15.41807067167496
2018-092D
1 44042U 18092D   22031.51520895  .00007868  00000+0  19341-3 0  9996
2 44042  51.6408  25.8324 0002379 348.4446 105.3111 15.41600714180446
CHEFSAT 2
1 44044U 18092E   22031.33024106  .00050364  00000+0  87104-3 0  9993
2 44044  51.6372  18.1213 0006884 338.3474  21.7223 15.50423405166814
EGYPTSAT-A (MISRSAT-A)
1 44047U 19008A   22031.44433495  .00000187  00000+0  37393-4 0  9995
2 44047  98.0091  98.1447 0001464 100.2749 259.8633 14.72331911158146
NUSANTARA SATU
1 44048U 19009A   22030.82443700 -.00000243  00000+0  00000+0 0  9992
2 44048   0.0118  72.4036 0001579 231.0670 269.3251  1.00270342 10733
ONEWEB-0012
1 44057U 19010A   22030.87036069  .00000058  00000+0  10365-3 0  9997
2 44057  86.8032 199.3333 0002192  98.6405 261.4977 13.23423941141145
ONEWEB-0010
1 44058U 19010B   22030.92071053 -.00000008  00000+0 -52290-4 0  9997
2 44058  86.7879 199.0467 0001496  94.2062 265.9243 13.23128515141207
ONEWEB-0008
1 44059U 19010C   22030.98655331 -.00000004  00000+0 -43314-4 0  9994
2 44059  86.8037 199.2901 0001520 107.1734 252.9566 13.23606637141332
ONEWEB-0007
1 44060U 19010D   22031.25001157 -.00017159  00000+0 -45698-1 0  9991
2 44060  87.9039 216.8814 0001167  80.1994  51.7051 13.15551514141318
ONEWEB-0006
1 44061U 19010E   22031.25001157 -.00010790  00000+0 -28728-1 0  9991
2 44061  87.9074 216.9074 0001140 100.5552  91.2021 13.15549269141326
ONEWEB-0011
1 44062U 19010F   22031.25001157 -.00010261  00000+0 -27320-1 0  9992
2 44062  87.9081 216.9277 0001655  74.5427 177.1805 13.15548518141344
S5
1 44065U 19009D   22031.40491411 -.00000186  00000+0  00000+0 0  9994
2 44065   2.4766  89.0396 0001680  29.0486 330.8546  0.99341853 10579
CHINASAT 6C (ZX 6C)
1 44067U 19012A   22030.89203115 -.00000362  00000+0  00000+0 0  9990
2 44067   0.0221 121.0411 0004591 163.5249 291.6857  1.00269467 10708
WGS 10 (USA 291)
1 44071U 19014A   22030.80188323  .00000039  00000+0  00000+0 0  9991
2 44071   0.0134  96.3610 0000469 339.0196  43.5782  1.00270770 10601
PRISMA
1 44072U 19015A   22031.50973844  .00000107  00000+0  19403-4 0  9999
2 44072  97.8644 108.2703 0001432  94.2050 265.9329 14.83405688155158
TIANLIAN 2-01
1 44076U 19017A   22031.17015455 -.00000143  00000+0  00000+0 0  9992
2 44076   0.5663 282.0844 0029719 228.6498 120.8368  1.00269248 10582
